satname,norad_id,inclination_deg,eccentricity,mean_motion_rev_per_day,perigee_km,apogee_km,l1,l2
STARLINK-1008,44714,53.1558,0.000169,15.31641285,469.7575373840691,472.07251696925596,1 44714U 19074B   26077.45234457  .00013286  00000+0  43994-3 0  9998,2 44714  53.1558 137.9813 0001690  65.7970 294.3208 15.31641285350216
STARLINK-1012,44718,53.16,0.0001735,15.3090679,471.9168432632423,474.29422442248597,1 44718U 19074F   26077.43713532  .00018242  00000+0  61303-3 0  9997,2 44718  53.1600 138.1564 0001735  37.5507 322.5615 15.30906790350206
STARLINK-1017,44723,53.0521,0.0002558,15.25036932,488.9174943149919,492.4315782969652,1 44723U 19074L   26077.85181678  .00026215  00000+0  10455-2 0  9999,2 44723  53.0521 129.1606 0002558  50.7577 309.3647 15.25036932350369
STARLINK-1019,44724,53.0404,7.8e-06,15.83857346,319.4918646739261,319.596348499188,1 44724U 19074M   26077.91667824  .00178741  00000+0  77456-3 0  9996,2 44724  53.0404  90.2183 0000078  14.6381 102.4897 15.83857346  5994
STARLINK-1020,44725,53.1607,0.000135,15.30311349,473.95746388665884,475.80777918447257,1 44725U 19074N   26077.42084404  .00007235  00000+0  25530-3 0  9995,2 44725  53.1607 163.2903 0001350  71.8042 288.3106 15.30311349349847
STARLINK-1031,44736,53.0361,0.0004794,15.9546716,283.8177375031755,290.2082833331633,1 44736U 19074Z   26077.91667824  .00242244  34136-4  60053-3 0  9996,2 44736  53.0361  72.8274 0004794  47.1881 279.5419 15.95467160  5902
STARLINK-1036,44741,53.049,0.0004605,15.57769042,390.9966696338206,397.2339139945807,1 44741U 19074AE  26077.47157435  .00084931  00000+0  11170-2 0  9995,2 44741  53.0490 145.9737 0004605 335.4057  24.6734 15.57769042350090
STARLINK-1039,44744,53.0533,0.0001856,15.22525902,496.94847993902204,499.50098541419084,1 44744U 19074AH  26077.41374891  .00020728  00000+0  89412-3 0  9998,2 44744  53.0533 174.9675 0001856 211.5967 148.4917 15.22525902349681
STARLINK-1042,44747,53.0438,0.000181,15.50250579,414.7641076005784,417.2235829665715,1 44747U 19074AL  26077.16439309  .00019543  00000+0  34689-3 0  9998,2 44747  53.0438  54.1177 0001810 120.4921 239.6266 15.50250579351388
STARLINK-1043,44748,53.0516,0.00023,15.54277682,402.69318203282364,405.81308149343477,1 44748U 19074AM  26077.59732927  .00023092  00000+0  35354-3 0  9992,2 44748  53.0516 151.5000 0002300  76.0480 284.0785 15.54277682350033
STARLINK-1046,44751,53.052,0.0003291,15.44619562,430.25476397183047,434.7375227067769,1 44751U 19074AQ  26077.67210154  .00060586  00000+0  12800-2 0  9997,2 44751  53.0520 168.1361 0003291 217.1144 142.9634 15.44619562349805
STARLINK-1047,44752,53.0676,0.0001566,15.32759213,466.51231486625966,468.6563947945915,1 44752U 19074AR  26077.29941310  .00006959  00000+0  22823-3 0  9992,2 44752  53.0676 105.7799 0001566 252.1400 107.9430 15.32759213350663
STARLINK-1048,44753,53.051,0.0001924,15.55163151,400.37397452598,402.98284749613686,1 44753U 19074AS  26077.84461315  .00065072  00000+0  94692-3 0  9990,2 44753  53.0510 124.6254 0001924  28.1096 332.0018 15.55163151350429
STARLINK-1053,44758,53.026,0.0006257,15.98347948,274.8365933238756,283.16733702489546,1 44758U 19074AX  26077.91667824  .00288867  45330-4  60906-3 0  9996,2 44758  53.0260  36.0676 0006257 110.1133  55.8762 15.98347948  5954
STARLINK-1063,44768,53.1585,0.0001607,15.30777896,472.38906251163826,474.59117546768084,1 44768U 19074BH  26077.66668981  .00082351  00000+0  27130-2 0  9995,2 44768  53.1585 177.6868 0001607  52.0725 128.5857 15.30777896  5886
STARLINK-1067,44771,53.0511,0.0005363,15.58849042,387.3566866390038,394.61724900689205,1 44771U 19074BL  26077.60932189  .00047621  00000+0  60692-3 0  9999,2 44771  53.0511 160.8399 0005363   2.3625 357.7411 15.58849042349900
STARLINK-1068,44772,53.0465,0.0003752,15.65155126,370.25970735981264,375.3256049737993,1 44772U 19074BM  26077.62902637  .00039557  00000+0  39642-3 0  9997,2 44772  53.0465 136.0393 0003752 341.6614  18.4265 15.65155126350243
STARLINK-1114,44927,53.0487,0.0007153,15.51921668,406.2593961301054,415.97210111228287,1 44927U 20001P   26077.89272307  .00068786  00000+0  11238-2 0  9990,2 44927  53.0487 285.1280 0007153 154.6076 205.5286 15.51921668341523
STARLINK-1123,44930,53.1493,9.83e-05,15.2895005,478.27568553541187,479.6237887879379,1 44930U 20001S   26077.59486957  .00036777  00000+0  12965-2 0  9992,2 44930  53.1493 303.8406 0000983  58.2115 301.8980 15.28950050341230
STARLINK-1094,44941,53.1598,0.000159,15.30188953,474.1583657449464,476.33774219210864,1 44941U 20001AD  26077.82754171  .00001044  00000+0  47380-4 0  9996,2 44941  53.1598 277.1171 0001590  98.6715 261.4466 15.30188953341631
STARLINK-1122,44949,53.1593,0.0001157,15.30203394,474.41200390388076,475.9978672277721,1 44949U 20001AM  26077.59264431  .00004169  00000+0  15278-3 0  9994,2 44949  53.1593 278.2543 0001157  77.3869 282.7261 15.30203394341593
STARLINK-1080,44961,53.0491,0.0005423,15.48795668,416.56127201432264,423.9348004246067,1 44961U 20001AZ  26077.46111158  .00081950  00000+0  14919-2 0  9994,2 44961  53.0491 246.2330 0005423 150.9909 209.1401 15.48795668342033
STARLINK-1090,44968,53.1535,0.0001448,15.29331013,476.81819521782927,478.80367774023216,1 44968U 20001BG  26077.91667824  .00045961  00000+0  15965-2 0  9991,2 44968  53.1535 263.6268 0001448  87.5819  61.6331 15.29331013  5635
STARLINK-1132,45044,53.1536,0.0003579,15.44320256,430.938257381491,435.8139384569822,1 45044U 20006A   26077.78509452  .00068276  00000+0  14547-2 0  9998,2 45044  53.1536 210.8186 0003579 247.1506 112.9123 15.44320256338338
STARLINK-1131,45047,53.1624,6.48e-05,15.30200851,474.7684314384496,475.65662553734273,1 45047U 20006D   26077.87535874  .00002717  00000+0  10380-3 0  9998,2 45047  53.1624 238.3101 0000648  79.6267 280.4807 15.30200851337957
STARLINK-1134,45048,53.0347,0.0005583,15.45264088,426.8008932346929,434.40353143918765,1 45048U 20006E   26077.75046684  .00042243  00000+0  87755-3 0  9990,2 45048  53.0347 195.1772 0005583 207.4214 152.6498 15.45264088338549
STARLINK-1156,45054,53.1581,9.65e-05,15.30194277,474.57080719532314,475.8935074426854,1 45054U 20006L   26077.70576295  .00000150  00000+0  17173-4 0  9997,2 45054  53.1581 239.1117 0000965  99.6488 260.4622 15.30194277337926
STARLINK-1159,45057,53.0442,0.000113,15.8478554,316.17212955672676,317.6852143985934,1 45057U 20006P   26077.91667824  .00109095  00000+0  45716-3 0  9993,2 45057  53.0442 188.2353 0001130   3.7190  38.8062 15.84785540  6051
STARLINK-1166,45060,53.0512,0.0002487,15.46864584,424.2126999670718,427.5970303908116,1 45060U 20006S   26077.82088951  .00062669  00000+0  12256-2 0  9992,2 45060  53.0512 229.1316 0002487 194.7172 165.3762 15.46864584338071
STARLINK-1169,45061,53.1576,0.0001237,15.3026436,474.1751729147654,475.87064467620166,1 45061U 20006T   26077.80366695  .00010101  00000+0  35202-3 0  9996,2 45061  53.1576 238.6587 0001237  78.4295 281.6844 15.30264360337941
STARLINK-1171,45062,53.0441,0.0002117,15.64661075,372.7842060962348,375.64315137361154,1 45062U 20006U   26077.78346917  .00044972  00000+0  45861-3 0  9994,2 45062  53.0441 204.8794 0002117  12.9881 347.1187 15.64661075338411
STARLINK-1133,45064,53.1601,0.000128,15.30207248,474.3162019883857,476.0706545780258,1 45064U 20006W   26077.67888692  .00001788  00000+0  72457-4 0  9995,2 45064  53.1601 216.0452 0001280  98.7614 261.3532 15.30207248338258
STARLINK-1167,45071,53.159,0.0001586,15.29890196,475.0531560438667,477.2273327857947,1 45071U 20006AD  26077.77597395  .00020197  00000+0  69880-3 0  9991,2 45071  53.1590 215.6867 0001586  65.2873 294.8293 15.29890196338267
STARLINK-1168,45072,53.1618,0.0001334,15.29368148,476.78538663421386,478.6145239338821,1 45072U 20006AE  26077.78689269  .00002094  00000+0  84838-4 0  9992,2 45072  53.1618 215.7111 0001334  80.5140 279.6011 15.29368148338266
STARLINK-1172,45074,53.1575,0.0001256,15.30804875,472.5490621641575,474.27017067420275,1 45074U 20006AG  26077.78491009  .00011188  00000+0  38213-3 0  9996,2 45074  53.1575 215.5581 0001256  79.3416 280.7726 15.30804875338264
STARLINK-1153,45080,53.1615,0.0002705,15.298457,474.41903156861554,478.12726745950295,1 45080U 20006AN  26077.76036985  .00013546  00000+0  47374-3 0  9997,2 45080  53.1615 215.6766 0002705 345.6782  14.4142 15.29845700338261
STARLINK-1151,45081,53.0533,0.0002537,15.66516282,367.16975377850395,370.593190951382,1 45081U 20006AP  26077.69856858  .00049938  00000+0  47209-3 0  9990,2 45081  53.0533 195.5155 0002537  19.3940 340.7171 15.66516282338530
STARLINK-1185,45087,53.1575,0.0001588,15.3351037,464.261940731958,466.43543178591335,1 45087U 20006AV  26077.71183574  .00055767  00000+0  16964-2 0  9997,2 45087  53.1575 200.3366 0001588  44.1799 315.9330 15.33510370338475
STARLINK-1183,45088,53.1639,0.0001517,15.30203035,474.16635533712997,476.2456596055972,1 45088U 20006AW  26077.76624616 -.00007057  00000+0 -22632-3 0  9991,2 45088  53.1639 200.4194 0001517  67.8173 292.2988 15.30203035338477
STARLINK-1152,45096,53.0389,0.0002691,15.39765855,444.9645304359392,448.63771213281325,1 45096U 20006BE  26077.42884863  .00048420  00000+0  12068-2 0  9993,2 45096  53.0389 165.2206 0002691 271.9063  88.1632 15.39765855338930
STARLINK-1184,45098,53.0533,0.0004174,15.10731266,531.083464192152,536.8536899278815,1 45098U 20006BG  26077.73102684  .00016057  00000+0  97285-3 0  9999,2 45098  53.0533 204.5714 0004174 153.6185 206.5019 15.10731266338408
STARLINK-1193,45100,53.0513,0.0004368,15.57760803,391.18104053236493,397.097300995144,1 45100U 20006BJ  26077.91667824  .00057768  00000+0  76473-3 0  9995,2 45100  53.0513 185.7027 0004368   8.8997 113.9884 15.57760803  5855
STARLINK-1143,45179,53.0452,0.0006448,15.65155954,368.4372773382047,377.14327315236005,1 45179U 20012B   26077.91667824  .00159233  00000+0  15553-2 0  9999,2 45179  53.0452 284.6931 0006448 135.2625 342.4229 15.65155954  5834
